[c2018u1(lemmon)]
absolute_magnitude=7.2
albedo=0.1
dust_lengthfactor=0.4
orbit_ArgOfPericenter=180.4205
orbit_good=1000
orbit_Inclination=108.3012
radius=5
name=C/2018 U1 (Lemmon)
orbit_TimeAtPericenter=2459521.298599537
slope_parameter=2.9
type=comet
orbit_PericenterDistance=4.993854
orbit_AscendingNode=75.4772
orbit_Eccentricity=1.000843
dust_brightnessfactor=1.5
coord_func=comet_orbit
dust_widthfactor=1.5
color=1.0, 1.0, 1.0
lighting=false
tex_map=nomap.png
parent=Sun

[c2019l3(atlas)]
absolute_magnitude=3.8
albedo=0.1
dust_lengthfactor=0.4
orbit_ArgOfPericenter=171.6451
orbit_good=1000
orbit_Inclination=48.3663
radius=5
name=C/2019 L3 (ATLAS)
orbit_TimeAtPericenter=2459589.306990741
slope_parameter=4.2
type=comet
orbit_PericenterDistance=3.553922
orbit_AscendingNode=290.7846
orbit_Eccentricity=1.000682
dust_brightnessfactor=1.5
coord_func=comet_orbit
dust_widthfactor=1.5
color=1.0, 1.0, 1.0
lighting=false
tex_map=nomap.png
parent=Sun

[p2019ld2(atlas)]
absolute_magnitude=8.2
albedo=0.1
dust_lengthfactor=0.4
orbit_ArgOfPericenter=123.434
orbit_good=1000
orbit_Inclination=11.5666
radius=5
name=P/2019 LD2 (ATLAS)
orbit_TimeAtPericenter=2458949.0795949074
slope_parameter=4
type=comet
orbit_PericenterDistance=4.577986
orbit_AscendingNode=179.6705
orbit_Eccentricity=0.133733
dust_brightnessfactor=1.5
coord_func=comet_orbit
dust_widthfactor=1.5
orbit_visualization_period=4437.439668896689
color=1.0, 1.0, 1.0
lighting=false
tex_map=nomap.png
parent=Sun

[c2019n1(atlas)]
absolute_magnitude=8.8
albedo=0.1
dust_lengthfactor=0.4
orbit_ArgOfPericenter=193.4457
orbit_good=1000
orbit_Inclination=82.4268
radius=5
name=C/2019 N1 (ATLAS)
orbit_TimeAtPericenter=2459185.3047916666
slope_parameter=3
type=comet
orbit_PericenterDistance=1.70461
orbit_AscendingNode=13.5733
orbit_Eccentricity=0.999915
dust_brightnessfactor=1.5
coord_func=comet_orbit
dust_widthfactor=1.5
orbit_visualization_period=1037307662.7720704
color=1.0, 1.0, 1.0
lighting=false
tex_map=nomap.png
parent=Sun

[c2019t3(atlas)]
absolute_magnitude=5.6
albedo=0.1
dust_lengthfactor=0.4
orbit_ArgOfPericenter=112.2621
orbit_good=1000
orbit_Inclination=121.8626
radius=5
name=C/2019 T3 (ATLAS)
orbit_TimeAtPericenter=2459276.0530902776
slope_parameter=4
type=comet
orbit_PericenterDistance=5.946571
orbit_AscendingNode=139.5191
orbit_Eccentricity=0.998697
dust_brightnessfactor=1.5
coord_func=comet_orbit
dust_widthfactor=1.5
orbit_visualization_period=112611233.64841816
color=1.0, 1.0, 1.0
lighting=false
tex_map=nomap.png
parent=Sun

[c2019u6(lemmon)]
absolute_magnitude=7.4
albedo=0.1
dust_lengthfactor=0.4
orbit_ArgOfPericenter=329.6611
orbit_good=1000
orbit_Inclination=61.0009
radius=5
name=C/2019 U6 (Lemmon)
orbit_TimeAtPericenter=2459019.322997685
slope_parameter=6.4
type=comet
orbit_PericenterDistance=0.914252
orbit_AscendingNode=235.7053
orbit_Eccentricity=0.997884
dust_brightnessfactor=1.5
coord_func=comet_orbit
dust_widthfactor=1.5
orbit_visualization_period=3280377.3942542165
color=1.0, 1.0, 1.0
lighting=false
tex_map=nomap.png
parent=Sun

[c2020f3(neowise)]
absolute_magnitude=6.5
albedo=0.1
dust_lengthfactor=0.4
orbit_ArgOfPericenter=37.279
orbit_good=1000
orbit_Inclination=128.9363
radius=5
name=C/2020 F3 (NEOWISE)
orbit_TimeAtPericenter=2459034.179097222
slope_parameter=4.4
type=comet
orbit_PericenterDistance=0.294647
orbit_AscendingNode=61.0111
orbit_Eccentricity=0.999187
dust_brightnessfactor=1.5
coord_func=comet_orbit
dust_widthfactor=1.5
orbit_visualization_period=2520087.637537002
color=1.0, 1.0, 1.0
lighting=false
tex_map=nomap.png
parent=Sun

[c2020f5(master)]
absolute_magnitude=5.4
albedo=0.1
dust_lengthfactor=0.4
orbit_ArgOfPericenter=311.0396
orbit_good=1000
orbit_Inclination=51.7023
radius=5
name=C/2020 F5 (MASTER)
orbit_TimeAtPericenter=2459297.6428935183
slope_parameter=4
type=comet
orbit_PericenterDistance=4.326386
orbit_AscendingNode=350.6403
orbit_Eccentricity=1.002604
dust_brightnessfactor=1.5
coord_func=comet_orbit
dust_widthfactor=1.5
color=1.0, 1.0, 1.0
lighting=false
tex_map=nomap.png
parent=Sun

[c2020j1(sonear)]
absolute_magnitude=6.9
albedo=0.1
dust_lengthfactor=0.4
orbit_ArgOfPericenter=341.712
orbit_good=1000
orbit_Inclination=142.3002
radius=5
name=C/2020 J1 (SONEAR)
orbit_TimeAtPericenter=2459322.9554976854
slope_parameter=4
type=comet
orbit_PericenterDistance=3.35544
orbit_AscendingNode=226.5672
orbit_Eccentricity=1.000594
dust_brightnessfactor=1.5
coord_func=comet_orbit
dust_widthfactor=1.5
color=1.0, 1.0, 1.0
lighting=false
tex_map=nomap.png
parent=Sun

[c2020k8(catalinaatlas)]
absolute_magnitude=16.3
albedo=0.1
dust_lengthfactor=0.4
orbit_ArgOfPericenter=260.057
orbit_good=1000
orbit_Inclination=31.4135
radius=5
name=C/2020 K8 (Catalina-ATLAS)
orbit_TimeAtPericenter=2459107.0181944445
slope_parameter=4
type=comet
orbit_PericenterDistance=0.47461
orbit_AscendingNode=181.52
orbit_Eccentricity=1.00026
dust_brightnessfactor=1.5
coord_func=comet_orbit
dust_widthfactor=1.5
color=1.0, 1.0, 1.0
lighting=false
tex_map=nomap.png
parent=Sun

[c2020m3(atlas)]
absolute_magnitude=11.3
albedo=0.1
dust_lengthfactor=0.4
orbit_ArgOfPericenter=328.1485
orbit_good=1000
orbit_Inclination=23.5068
radius=5
name=C/2020 M3 (ATLAS)
orbit_TimeAtPericenter=2459147.9762962963
slope_parameter=4
type=comet
orbit_PericenterDistance=1.27107
orbit_AscendingNode=71.4046
orbit_Eccentricity=0.957882
dust_brightnessfactor=1.5
coord_func=comet_orbit
dust_widthfactor=1.5
orbit_visualization_period=60555.140946461135
color=1.0, 1.0, 1.0
lighting=false
tex_map=nomap.png
parent=Sun

[c2020n1(panstarrs)]
absolute_magnitude=12.5
albedo=0.1
dust_lengthfactor=0.4
orbit_ArgOfPericenter=186.7785
orbit_good=1000
orbit_Inclination=29.7038
radius=5
name=C/2020 N1 (PANSTARRS)
orbit_TimeAtPericenter=2459285.7119907406
slope_parameter=4
type=comet
orbit_PericenterDistance=1.320436
orbit_AscendingNode=279.9828
orbit_Eccentricity=1.000532
dust_brightnessfactor=1.5
coord_func=comet_orbit
dust_widthfactor=1.5
color=1.0, 1.0, 1.0
lighting=false
tex_map=nomap.png
parent=Sun

[c2020p1(neowise)]
absolute_magnitude=14
albedo=0.1
dust_lengthfactor=0.4
orbit_ArgOfPericenter=8.9466
orbit_good=1000
orbit_Inclination=44.9412
radius=5
name=C/2020 P1 (NEOWISE)
orbit_TimeAtPericenter=2459142.6608912037
slope_parameter=3.2
type=comet
orbit_PericenterDistance=0.343166
orbit_AscendingNode=53.4032
orbit_Eccentricity=0.999175
dust_brightnessfactor=1.5
coord_func=comet_orbit
dust_widthfactor=1.5
orbit_visualization_period=3098659.692403152
color=1.0, 1.0, 1.0
lighting=false
tex_map=nomap.png
parent=Sun

[c2020q1(borisov)]
absolute_magnitude=12.3
albedo=0.1
dust_lengthfactor=0.4
orbit_ArgOfPericenter=10.388
orbit_good=1000
orbit_Inclination=142.9314
radius=5
name=C/2020 Q1 (Borisov)
orbit_TimeAtPericenter=2459076.6992939813
slope_parameter=4
type=comet
orbit_PericenterDistance=1.318029
orbit_AscendingNode=52.4978
orbit_Eccentricity=0.995247
dust_brightnessfactor=1.5
coord_func=comet_orbit
dust_widthfactor=1.5
orbit_visualization_period=1686685.6667029755
color=1.0, 1.0, 1.0
lighting=false
tex_map=nomap.png
parent=Sun

[2pencke]
absolute_magnitude=11.5
albedo=0.1
dust_lengthfactor=0.4
orbit_ArgOfPericenter=186.5658
orbit_good=602
orbit_Inclination=11.7649
radius=5
name=2P/Encke
orbit_TimeAtPericenter=2459026.3459953703
slope_parameter=4.4
type=comet
orbit_PericenterDistance=0.336724
orbit_AscendingNode=334.5498
orbit_Eccentricity=0.84801
dust_brightnessfactor=1.5
coord_func=comet_orbit
dust_widthfactor=1.5
orbit_visualization_period=1204.4451082352343
color=1.0, 1.0, 1.0
lighting=false
tex_map=nomap.png
parent=Sun

[8ptuttle]
absolute_magnitude=9
albedo=0.1
dust_lengthfactor=0.4
orbit_ArgOfPericenter=207.4902
orbit_good=1000
orbit_Inclination=54.9116
radius=5
name=8P/Tuttle
orbit_TimeAtPericenter=2459454.277789352
slope_parameter=4
type=comet
orbit_PericenterDistance=1.026161
orbit_AscendingNode=270.2049
orbit_Eccentricity=0.820095
dust_brightnessfactor=1.5
coord_func=comet_orbit
dust_widthfactor=1.5
orbit_visualization_period=4975.730318983499
color=1.0, 1.0, 1.0
lighting=false
tex_map=nomap.png
parent=Sun

[11ptempelswiftlinear]
absolute_magnitude=17
albedo=0.1
dust_lengthfactor=0.4
orbit_ArgOfPericenter=167.9414
orbit_good=1000
orbit_Inclination=14.4204
radius=5
name=11P/Tempel-Swift-LINEAR
orbit_TimeAtPericenter=2459179.720497685
slope_parameter=4
type=comet
orbit_PericenterDistance=1.38881
orbit_AscendingNode=238.9177
orbit_Eccentricity=0.576944
dust_brightnessfactor=1.5
coord_func=comet_orbit
dust_widthfactor=1.5
orbit_visualization_period=2172.5305443189754
color=1.0, 1.0, 1.0
lighting=false
tex_map=nomap.png
parent=Sun

[29pschwassmannwachmann]
absolute_magnitude=2.3
albedo=0.1
dust_lengthfactor=0.4
orbit_ArgOfPericenter=48.4298
orbit_good=1000
orbit_Inclination=9.3668
radius=5
name=29P/Schwassmann-Wachmann
orbit_TimeAtPericenter=2458559.149594907
slope_parameter=4
type=comet
orbit_PericenterDistance=5.767519
orbit_AscendingNode=312.3751
orbit_Eccentricity=0.04421
dust_brightnessfactor=1.5
coord_func=comet_orbit
dust_widthfactor=1.5
orbit_visualization_period=5414.2493634206085
color=1.0, 1.0, 1.0
lighting=false
tex_map=nomap.png
parent=Sun

[58pjacksonneujmin]
absolute_magnitude=3.8
albedo=0.1
dust_lengthfactor=0.4
orbit_ArgOfPericenter=200.4654
orbit_good=1000
orbit_Inclination=13.1064
radius=5
name=58P/Jackson-Neujmin
orbit_TimeAtPericenter=2458996.9589930554
slope_parameter=15.4
type=comet
orbit_PericenterDistance=1.377523
orbit_AscendingNode=159.0814
orbit_Eccentricity=0.662678
dust_brightnessfactor=1.5
coord_func=comet_orbit
dust_widthfactor=1.5
orbit_visualization_period=3014.2530928672018
color=1.0, 1.0, 1.0
lighting=false
tex_map=nomap.png
parent=Sun

